CAS-2T & KS-1Q          
1 41847U 16066G   21019.17114689  .00000016  00000-0  13719-4 0  9995
2 41847  98.6249  77.5164 0364470 305.9622  50.8265 14.38136867220428
NAYIF-1 (EO-88)         
1 42017U 17008BX  21019.16342580  .00001314  00000-0  51731-4 0  9992
2 42017  97.3359  89.3705 0004457 280.6530  79.4207 15.27377094218463
ZHUHAI-1 02 (CAS-4B)    
1 42759U 17034B   21019.15474844  .00000121  00000-0  20741-4 0  9994
2 42759  43.0178 281.7713 0010995 306.3777 206.4747 15.10044446198577
ZHUHAI-1 01 (CAS-4A)    
1 42761U 17034D   21019.15393597  .00000167  00000-0  23466-4 0  9999
2 42761  43.0184 280.9325 0011414 307.9931 205.2967 15.10125538198576
MAX VALIER SAT          
1 42778U 17036P   21019.13107438  .00000716  00000-0  33193-4 0  9992
2 42778  97.2775  72.4964 0011517 350.9084   9.1943 15.23143981198554
RADFXSAT (FOX-1B)       
1 43017U 17073E   21018.72386967  .00000618  00000-0  52497-4 0  9999
2 43017  97.7171 288.5818 0257255  68.8534 293.9963 14.79259468170980
FOX-1D (AO-92)          
1 43137U 18004AC  21019.18739143  .00000876  00000-0  38271-4 0  9996
2 43137  97.4241  94.6778 0009501  26.9434 333.2295 15.24723583167901
DIWATA-2B               
1 43678U 18084H   21019.40696591 -.00000253  00000-0 -19412-4 0  9995
2 43678  97.9046 144.1229 0009902 175.5984 184.5308 14.91696074121210
ES'HAIL 2               
1 43700U 18090A   21019.12140172  .00000147  00000-0  00000+0 0  9994
2 43700   0.0181  67.4442 0001630 272.5456 208.1902  1.00271861  8112
FOX-1CLIFF (AO-95)      
1 43770U 18099N   21018.74979334  .00000718  00000-0  70488-4 0  9993
2 43770  97.6838  92.1240 0014285 192.1944 167.8933 14.95172306116083
ITASAT 1                
1 43786U 18099AE  21018.83324409  .00000078  00000-0  12238-4 0  9995
2 43786  97.6857  92.7795 0014987 185.5815 174.5241 14.95487999116123
JY1SAT (JO-97)          
1 43803U 18099AX  21019.15465429  .00000621  00000-0  60866-4 0  9993
2 43803  97.6818  92.8678 0015055 184.2194 175.8903 14.95702031116175
PSAT2 (NO-104)          
1 44354U 19036R   21018.73180123  .00007714  00000-0  10397-3 0  9998
2 44354  28.5287  41.8920 0343561  98.1817 265.7884 15.08930104 86302
BRICSAT2 (NO-103)       
1 44355U 19036S   21018.31782078  .00015164  00000-0  18495-3 0  9995
2 44355  28.5287  19.7995 0302338 134.1144 228.4742 15.19598746 86482
JAISAT-1                
1 44419U 19038F   21019.09284793  .00000829  00000-0  50034-4 0  9993
2 44419  97.5688 344.5868 0022799 105.9289 254.4457 15.13302232 85206
DUCHIFAT-3              
1 44854U 19089C   21019.02515490  .00000379  00000-0  36900-4 0  9992
2 44854  36.9657 264.1892 0008829 358.5667   1.5051 14.99296732 60664
RS-44 & BREEZE-KM R/B   
1 44909U 19096E   21019.06470563  .00000006  00000-0 -30048-4 0  9991
2 44909  82.5193 212.0496 0218356  82.4511 280.1335 12.79708239 49762
ORBITAL FACTORY 2 (OF-2)
1 45113U 19071C   21019.46648478  .00002565  00000-0  86425-4 0  9999
2 45113  51.6434  39.2589 0012898 113.9356 246.2979 15.34608872 54283
HUSKYSAT-1              
1 45119U 19071J   21018.76856709  .00001754  00000-0  62498-4 0  9998
2 45119  51.6442  42.0979 0012238 108.3691 251.8623 15.34725522 54179
BY70-2                  
1 45857U 20042B   21019.45085797  .00000976  00000-0  14697-3 0  9997
2 45857  97.9978  96.7144 0009857 339.2457  20.8352 14.76630083 29552
SALSAT                  
1 46495U 20068K   21018.90572919  .00001023  00000-0  79752-4 0  9998
2 46495  97.6801 317.4182 0016154 217.3198 142.6907 15.03322076 16864
BY70-3                  
1 46839U 20079N   21019.37303374  .00001862  00000-0  61410-4 0  9994
2 46839  97.2577  96.1783 0007985  33.2687  27.1843 15.32659938 11368
OSCAR 7 (AO-7)          
1 07530U 74089B   21019.17118505 -.00000028  00000-0  10791-3 0  9996
2 07530 101.8340 353.9559 0012118 310.1879  61.2143 12.53646992113262
